ONEWEB-0349             
1 49281U 21090C   24268.62824825  .00000189  00000+0  43347-3 0  9996
2 49281  87.9252  39.8683 0001684 101.5670 258.5653 13.20773802146597
ONEWEB-0353             
1 49282U 21090D   24268.42264386  .00000137  00000+0  33586-3 0  9992
2 49282  87.8964  55.1399 0001699 104.5767 255.5552 13.14503027144718
ONEWEB-0356             
1 49283U 21090E   24268.62667740  .00000199  00000+0  45666-3 0  9996
2 49283  87.9251  39.8623 0000877  86.7421 273.3813 13.20770972146591
ONEWEB-0358             
1 49284U 21090F   24268.42937162  .00000064  00000+0  12595-3 0  9999
2 49284  87.9255  39.8891 0001557  89.4633 270.6679 13.20774492147293
ONEWEB-0359             
1 49285U 21090G   24268.35048507  .00000029  00000+0  40286-4 0  9998
2 49285  87.9253  39.9214 0002016  86.6885 273.4479 13.20770437147262
ONEWEB-0360             
1 49286U 21090H   24268.64401750  .00000153  00000+0  34526-3 0  9991
2 49286  87.9253  39.8682 0001908  94.8721 265.2630 13.20771695146613
ONEWEB-0361             
1 49287U 21090J   24268.62510518  .00000161  00000+0  36445-3 0  9994
2 49287  87.9252  39.8664 0001652  99.6527 260.4793 13.20771250147891
ONEWEB-0362             
1 49288U 21090K   24268.45734166  .00000085  00000+0  18094-3 0  9998
2 49288  87.9106  70.4345 0002085  93.9734 266.1637 13.19726425143725
